CCSDS_OMM_VERS = 2.0
CREATION_DATE  = 
ORIGINATOR     = 

OBJECT_NAME    = SL-16 R/B
OBJECT_ID      = 1993-016B
CENTER_NAME    = EARTH
REF_FRAME      = TEME
TIME_SYSTEM    = UTC
MEAN_ELEMENT_THEORY = SGP/SGP4

EPOCH          = 2025-12-06T15:02:38.169024
MEAN_MOTION    = 14.15287972
ECCENTRICITY   = .00078117
INCLINATION    = 71.0089
RA_OF_ASC_NODE = 50.6424
ARG_OF_PERICENTER = 109.3347
MEAN_ANOMALY   = 250.8621

EPHEMERIS_TYPE = 0
CLASSIFICATION_TYPE = U
NORAD_CAT_ID   = 22566
ELEMENT_SET_NO = 999
REV_AT_EPOCH   = 68900
BSTAR          = -.66204651E-4
MEAN_MOTION_DOT = -.177E-5
MEAN_MOTION_DDOT = 0

CCSDS_OMM_VERS = 2.0
CREATION_DATE  = 
ORIGINATOR     = 

OBJECT_NAME    = COSMOS 2242
OBJECT_ID      = 1993-024A
CENTER_NAME    = EARTH
REF_FRAME      = TEME
TIME_SYSTEM    = UTC
MEAN_ELEMENT_THEORY = SGP/SGP4

EPOCH          = 2025-12-06T13:11:09.371328
MEAN_MOTION    = 14.96068589
ECCENTRICITY   = .00147975
INCLINATION    = 82.5190
RA_OF_ASC_NODE = 355.7621
ARG_OF_PERICENTER = 257.2637
MEAN_ANOMALY   = 102.6931

EPHEMERIS_TYPE = 0
CLASSIFICATION_TYPE = U
NORAD_CAT_ID   = 22626
ELEMENT_SET_NO = 999
REV_AT_EPOCH   = 76646
BSTAR          = .31444316E-3
MEAN_MOTION_DOT = .3564E-4
MEAN_MOTION_DDOT = 0

CCSDS_OMM_VERS = 2.0
CREATION_DATE  = 
ORIGINATOR     = 

OBJECT_NAME    = SL-16 R/B
OBJECT_ID      = 1993-059B
CENTER_NAME    = EARTH
REF_FRAME      = TEME
TIME_SYSTEM    = UTC
MEAN_ELEMENT_THEORY = SGP/SGP4

EPOCH          = 2025-12-06T12:30:06.590304
MEAN_MOTION    = 14.17212257
ECCENTRICITY   = .00176223
INCLINATION    = 70.9898
RA_OF_ASC_NODE = 207.5999
ARG_OF_PERICENTER = 344.6763
MEAN_ANOMALY   = 15.3825

EPHEMERIS_TYPE = 0
CLASSIFICATION_TYPE = U
NORAD_CAT_ID   = 22803
ELEMENT_SET_NO = 999
REV_AT_EPOCH   = 66633
BSTAR          = .16247257E-3
MEAN_MOTION_DOT = .28E-5
MEAN_MOTION_DDOT = 0

CCSDS_OMM_VERS = 2.0
CREATION_DATE  = 
ORIGINATOR     = 

OBJECT_NAME    = ARIANE 40 R/B
OBJECT_ID      = 1993-061H
CENTER_NAME    = EARTH
REF_FRAME      = TEME
TIME_SYSTEM    = UTC
MEAN_ELEMENT_THEORY = SGP/SGP4

EPOCH          = 2025-12-06T14:42:06.391008
MEAN_MOTION    = 14.32795419
ECCENTRICITY   = .00105278
INCLINATION    = 98.5084
RA_OF_ASC_NODE = 46.2539
ARG_OF_PERICENTER = 194.1707
MEAN_ANOMALY   = 165.9183

EPHEMERIS_TYPE = 0
CLASSIFICATION_TYPE = U
NORAD_CAT_ID   = 22830
ELEMENT_SET_NO = 999
REV_AT_EPOCH   = 68077
BSTAR          = .22136303E-3
MEAN_MOTION_DOT = .56E-5
MEAN_MOTION_DDOT = 0

CCSDS_OMM_VERS = 2.0
CREATION_DATE  = 
ORIGINATOR     = 

OBJECT_NAME    = COSMOS 2278
OBJECT_ID      = 1994-023A
CENTER_NAME    = EARTH
REF_FRAME      = TEME
TIME_SYSTEM    = UTC
MEAN_ELEMENT_THEORY = SGP/SGP4

EPOCH          = 2025-12-06T09:11:15.598752
MEAN_MOTION    = 14.14351324
ECCENTRICITY   = .00086564
INCLINATION    = 71.0549
RA_OF_ASC_NODE = 10.3108
ARG_OF_PERICENTER = 189.7803
MEAN_ANOMALY   = 170.3153

EPHEMERIS_TYPE = 0
CLASSIFICATION_TYPE = U
NORAD_CAT_ID   = 23087
ELEMENT_SET_NO = 999
REV_AT_EPOCH   = 63161
BSTAR          = .9861951E-5
MEAN_MOTION_DOT = -.28E-6
MEAN_MOTION_DDOT = 0

CCSDS_OMM_VERS = 2.0
CREATION_DATE  = 
ORIGINATOR     = 

OBJECT_NAME    = SL-16 R/B
OBJECT_ID      = 1994-023B
CENTER_NAME    = EARTH
REF_FRAME      = TEME
TIME_SYSTEM    = UTC
MEAN_ELEMENT_THEORY = SGP/SGP4

EPOCH          = 2025-12-06T13:01:19.160832
MEAN_MOTION    = 14.15000462
ECCENTRICITY   = .00011024
INCLINATION    = 71.0007
RA_OF_ASC_NODE = 266.4995
ARG_OF_PERICENTER = 54.6686
MEAN_ANOMALY   = 305.4539

EPHEMERIS_TYPE = 0
CLASSIFICATION_TYPE = U
NORAD_CAT_ID   = 23088
ELEMENT_SET_NO = 999
REV_AT_EPOCH   = 63291
BSTAR          = .19865842E-3
MEAN_MOTION_DOT = .337E-5
MEAN_MOTION_DDOT = 0

CCSDS_OMM_VERS = 2.0
CREATION_DATE  = 
ORIGINATOR     = 

OBJECT_NAME    = SL-16 R/B
OBJECT_ID      = 1994-074B
CENTER_NAME    = EARTH
REF_FRAME      = TEME
TIME_SYSTEM    = UTC
MEAN_ELEMENT_THEORY = SGP/SGP4

EPOCH          = 2025-12-06T15:57:00.239040
MEAN_MOTION    = 14.79279419
ECCENTRICITY   = .00071393
INCLINATION    = 97.7207
RA_OF_ASC_NODE = 10.2105
ARG_OF_PERICENTER = 153.2787
MEAN_ANOMALY   = 320.2078

EPHEMERIS_TYPE = 0
CLASSIFICATION_TYPE = U
NORAD_CAT_ID   = 23343
ELEMENT_SET_NO = 999
REV_AT_EPOCH   = 67349
BSTAR          = .14090211E-3
MEAN_MOTION_DOT = .999E-5
MEAN_MOTION_DDOT = 0

CCSDS_OMM_VERS = 2.0
CREATION_DATE  = 
ORIGINATOR     = 

OBJECT_NAME    = SL-16 R/B
OBJECT_ID      = 1994-077B
CENTER_NAME    = EARTH
REF_FRAME      = TEME
TIME_SYSTEM    = UTC
MEAN_ELEMENT_THEORY = SGP/SGP4

EPOCH          = 2025-12-06T15:08:52.416672
MEAN_MOTION    = 14.15546456
ECCENTRICITY   = .00045787
INCLINATION    = 70.9811
RA_OF_ASC_NODE = 188.2647
ARG_OF_PERICENTER = 288.6333
MEAN_ANOMALY   = 71.4293

EPHEMERIS_TYPE = 0
CLASSIFICATION_TYPE = U
NORAD_CAT_ID   = 23405
ELEMENT_SET_NO = 999
REV_AT_EPOCH   = 60306
BSTAR          = .11195416E-3
MEAN_MOTION_DOT = .171E-5
MEAN_MOTION_DDOT = 0

CCSDS_OMM_VERS = 2.0
CREATION_DATE  = 
ORIGINATOR     = 

OBJECT_NAME    = ARIANE 40+ R/B
OBJECT_ID      = 1995-021B
CENTER_NAME    = EARTH
REF_FRAME      = TEME
TIME_SYSTEM    = UTC
MEAN_ELEMENT_THEORY = SGP/SGP4

EPOCH          = 2025-12-06T15:11:47.515776
MEAN_MOTION    = 14.39688414
ECCENTRICITY   = .0007687
INCLINATION    = 98.4659
RA_OF_ASC_NODE = 48.2956
ARG_OF_PERICENTER = 66.0279
MEAN_ANOMALY   = 60.1607

EPHEMERIS_TYPE = 0
CLASSIFICATION_TYPE = U
NORAD_CAT_ID   = 23561
ELEMENT_SET_NO = 999
REV_AT_EPOCH   = 60585
BSTAR          = .22450874E-3
MEAN_MOTION_DOT = .659E-5
MEAN_MOTION_DDOT = 0

CCSDS_OMM_VERS = 2.0
CREATION_DATE  = 
ORIGINATOR     = 

OBJECT_NAME    = SL-16 R/B
OBJECT_ID      = 1995-058B
CENTER_NAME    = EARTH
REF_FRAME      = TEME
TIME_SYSTEM    = UTC
MEAN_ELEMENT_THEORY = SGP/SGP4

EPOCH          = 2025-12-06T13:30:33.692544
MEAN_MOTION    = 14.15480905
ECCENTRICITY   = .00149072
INCLINATION    = 71.0225
RA_OF_ASC_NODE = 15.7729
ARG_OF_PERICENTER = 262.9688
MEAN_ANOMALY   = 96.9740

EPHEMERIS_TYPE = 0
CLASSIFICATION_TYPE = U
NORAD_CAT_ID   = 23705
ELEMENT_SET_NO = 999
REV_AT_EPOCH   = 55467
BSTAR          = .1972231E-3
MEAN_MOTION_DOT = .338E-5
MEAN_MOTION_DDOT = 0

CCSDS_OMM_VERS = 2.0
CREATION_DATE  = 
ORIGINATOR     = 

OBJECT_NAME    = SL-16 R/B
OBJECT_ID      = 1996-051B
CENTER_NAME    = EARTH
REF_FRAME      = TEME
TIME_SYSTEM    = UTC
MEAN_ELEMENT_THEORY = SGP/SGP4

EPOCH          = 2025-12-06T12:56:57.790464
MEAN_MOTION    = 14.12395702
ECCENTRICITY   = .00192833
INCLINATION    = 70.7598
RA_OF_ASC_NODE = 12.4082
ARG_OF_PERICENTER = 268.9708
MEAN_ANOMALY   = 90.9203

EPHEMERIS_TYPE = 0
CLASSIFICATION_TYPE = U
NORAD_CAT_ID   = 24298
ELEMENT_SET_NO = 999
REV_AT_EPOCH   = 50849
BSTAR          = .60685309E-4
MEAN_MOTION_DOT = .63E-6
MEAN_MOTION_DDOT = 0

CCSDS_OMM_VERS = 2.0
CREATION_DATE  = 
ORIGINATOR     = 

OBJECT_NAME    = ORBVIEW 2 (SEASTAR)
OBJECT_ID      = 1997-037A
CENTER_NAME    = EARTH
REF_FRAME      = TEME
TIME_SYSTEM    = UTC
MEAN_ELEMENT_THEORY = SGP/SGP4

EPOCH          = 2025-12-06T10:23:00.673152
MEAN_MOTION    = 14.35410141
ECCENTRICITY   = .0001968
INCLINATION    = 98.8455
RA_OF_ASC_NODE = 137.3484
ARG_OF_PERICENTER = 1.8529
MEAN_ANOMALY   = 358.2663

EPHEMERIS_TYPE = 0
CLASSIFICATION_TYPE = U
NORAD_CAT_ID   = 24883
ELEMENT_SET_NO = 999
REV_AT_EPOCH   = 49509
BSTAR          = .25063327E-3
MEAN_MOTION_DOT = .673E-5
MEAN_MOTION_DDOT = 0

